{
    "links": {
        "self": "http://www.neowsapp.com/rest/v1/neo/54051108?api_key=iIulBulltgU6a56xZRHN4H3l9WmuAYTsLGpBGhQ2"
    },
    "id": "54051108",
    "neo_reference_id": "54051108",
    "name": "(2020 PE5)",
    "designation": "2020 PE5",
    "nasa_jpl_url": "http://ssd.jpl.nasa.gov/sbdb.cgi?sstr=54051108",
    "absolute_magnitude_h": 25.828,
    "estimated_diameter": {
        "kilometers": {
            "estimated_diameter_min": 0.0181532746,
            "estimated_diameter_max": 0.040591956
        },
        "meters": {
            "estimated_diameter_min": 18.1532745767,
            "estimated_diameter_max": 40.5919559677
        },
        "miles": {
            "estimated_diameter_min": 0.0112799184,
            "estimated_diameter_max": 0.0252226643
        },
        "feet": {
            "estimated_diameter_min": 59.5579893621,
            "estimated_diameter_max": 133.175712817
        }
    },
    "is_potentially_hazardous_asteroid": false,
    "close_approach_data": [
        {
            "close_approach_date": "2020-08-18",
            "close_approach_date_full": "2020-Aug-18 08:28",
            "epoch_date_close_approach": 1597739280000,
            "relative_velocity": {
                "kilometers_per_second": "8.9621544537",
                "kilometers_per_hour": "32263.7560334881",
                "miles_per_hour": "20047.443297586"
            },
            "miss_distance": {
                "astronomical": "0.0925323763",
                "lunar": "35.9950943807",
                "kilometers": "13842646.400518481",
                "miles": "8601421.6200617978"
            },
            "orbiting_body": "Earth"
        },
        {
            "close_approach_date": "2021-01-06",
            "close_approach_date_full": "2021-Jan-06 01:01",
            "epoch_date_close_approach": 1609894860000,
            "relative_velocity": {
                "kilometers_per_second": "9.4934741154",
                "kilometers_per_hour": "34176.5068152866",
                "miles_per_hour": "21235.952248643"
            },
            "miss_distance": {
                "astronomical": "0.2622736641",
                "lunar": "102.0244553349",
                "kilometers": "39235581.506455467",
                "miles": "24379859.8389887646"
            },
            "orbiting_body": "Earth"
        }
    ],
    "orbital_data": {
        "orbit_id": "1",
        "orbit_determination_date": "2020-08-17 05:12:08",
        "first_observation_date": "2020-08-13",
        "last_observation_date": "2020-08-17",
        "data_arc_in_days": 4,
        "observations_used": 13,
        "orbit_uncertainty": "9",
        "minimum_orbit_intersection": ".0924313",
        "jupiter_tisserand_invariant": "5.265",
        "epoch_osculation": "2459076.5",
        "eccentricity": ".1347982000631904",
        "semi_major_axis": "1.194878206024438",
        "inclination": "16.61762349488711",
        "ascending_node_longitude": "319.7727273933989",
        "orbital_period": "477.0719546607997",
        "perihelion_distance": "1.03381077455761",
        "perihelion_argument": "66.01904305123254",
        "aphelion_distance": "1.355945637491267",
        "perihelion_time": "2459142.183170287875",
        "mean_anomaly": "310.4352727662489",
        "mean_motion": ".7546031504953202",
        "equinox": "J2000",
        "orbit_class": {
            "orbit_class_type": "AMO",
            "orbit_class_description": "Near-Earth asteroid orbits similar to that of 1221 Amor",
            "orbit_class_range": "1.017 AU < q (perihelion) < 1.3 AU"
        }
    },
    "is_sentry_object": false
}